$$SOE
2459580.500000000, A.D. 2022-Jan-01 00:00:00.0000, 2.409462595737348E+08, 4.594947642090365E+08, 3.511978558516586E+07,
2459587.500000000, A.D. 2022-Jan-08 00:00:00.0000, 2.330254653101281E+08, 4.626079940045556E+08, 3.746832966437671E+07,
2459594.500000000, A.D. 2022-Jan-15 00:00:00.0000, 2.250238700917494E+08, 4.655608585765526E+08, 3.980388554253739E+07,
2459601.500000000, A.D. 2022-Jan-22 00:00:00.0000, 2.169439278510820E+08, 4.683516640526062E+08, 4.212558598435190E+07,
2459608.500000000, A.D. 2022-Jan-29 00:00:00.0000, 2.087881283638156E+08, 4.709787344926177E+08, 4.443255904722762E+07,
2459615.500000000, A.D. 2022-Feb-05 00:00:00.0000, 2.005589960315804E+08, 4.734404115480720E+08, 4.672392807309517E+07,
2459622.500000000, A.D. 2022-Feb-12 00:00:00.0000, 1.922590908623728E+08, 4.757350531007844E+08, 4.899881139904362E+07,
2459629.500000000, A.D. 2022-Feb-19 00:00:00.0000, 1.838910103247071E+08, 4.778610332515877E+08, 5.125632210208642E+07,
2459636.500000000, A.D. 2022-Feb-26 00:00:00.0000, 1.754573907636108E+08, 4.798167429366743E+08, 5.349556783932763E+07,
2459643.500000000, A.D. 2022-Mar-05 00:00:00.0000, 1.669609085369265E+08, 4.816005905562214E+08, 5.571565071864107E+07,
2459650.500000000, A.D. 2022-Mar-12 00:00:00.0000, 1.584042810931148E+08, 4.832110025516116E+08, 5.791566717430794E+07,
2459657.500000000, A.D. 2022-Mar-19 00:00:00.0000, 1.497902680610541E+08, 4.846464239615198E+08, 6.009470784357032E+07,
2459664.500000000, A.D. 2022-Mar-26 00:00:00.0000, 1.411216723736416E+08, 4.859053189533010E+08, 6.225185744178864E+07,
2459671.500000000, A.D. 2022-Apr-02 00:00:00.0000, 1.324013414922910E+08, 4.869861712763604E+08, 6.438619462571514E+07,
2459678.500000000, A.D. 2022-Apr-09 00:00:00.0000, 1.236321690035539E+08, 4.878874846451401E+08, 6.649679182073784E+07,
2459685.500000000, A.D. 2022-Apr-16 00:00:00.0000, 1.148170969442843E+08, 4.886077837091300E+08, 6.858271503336611E+07,
2459692.500000000, A.D. 2022-Apr-23 00:00:00.0000, 1.059591175863754E+08, 4.891456166972862E+08, 7.064302385453266E+07,
2459699.500000000, A.D. 2022-Apr-30 00:00:00.0000, 9.706127281003663E+07, 4.894995574928110E+08, 7.267677164206377E+07,
2459706.500000000, A.D. 2022-May-07 00:00:00.0000, 8.812665412565218E+07, 4.896682051673439E+08, 7.468300544082606E+07,
2459713.500000000, A.D. 2022-May-14 00:00:00.0000, 7.915840473248027E+07, 4.896501840178316E+08, 7.666076576261669E+07,
2459720.500000000, A.D. 2022-May-21 00:00:00.0000, 7.015972158270328E+07, 4.894441448681264E+08, 7.860908647497410E+07,
2459727.500000000, A.D. 2022-May-28 00:00:00.0000, 6.113385697043760E+07, 4.890487666791248E+08, 8.052699476529849E+07,
2459734.500000000, A.D. 2022-Jun-04 00:00:00.0000, 5.208411992081344E+07, 4.884627581578796E+08, 8.241351113032439E+07,
2459741.500000000, A.D. 2022-Jun-11 00:00:00.0000, 4.301387752173804E+07, 4.876848593715373E+08, 8.426764937900352E+07,
2459748.500000000, A.D. 2022-Jun-18 00:00:00.0000, 3.392655623482335E+07, 4.867138433832482E+08, 8.608841664758274E+07,
2459755.500000000, A.D. 2022-Jun-25 00:00:00.0000, 2.482564321245477E+07, 4.855485178808702E+08, 8.787481342280972E+07,
2459762.500000000, A.D. 2022-Jul-02 00:00:00.0000, 1.571468775224751E+07, 4.841877267368872E+08, 8.962583355706796E+07,
2459769.500000000, A.D. 2022-Jul-09 00:00:00.0000, 6.597303275964990E+06, 4.826303516810098E+08, 9.134046425577533E+07,
2459776.500000000, A.D. 2022-Jul-16 00:00:00.0000, -2.522830225573775E+06, 4.808753151735516E+08, 9.301768613258848E+07,
2459783.500000000, A.D. 2022-Jul-23 00:00:00.0000, -1.164196548246276E+07, 4.789215845622809E+08, 9.465647354238397E+07,
2459790.500000000, A.D. 2022-Jul-30 00:00:00.0000, -2.075628888959881E+07, 4.767681741712776E+08, 9.625579491163447E+07,
2459797.500000000, A.D. 2022-Aug-06 00:00:00.0000, -2.986191951107622E+07, 4.744141459737589E+08, 9.781461279105440E+07,
2459804.500000000, A.D. 2022-Aug-13 00:00:00.0000, -3.895490697227728E+07, 4.718586116091745E+08, 9.933188393355736E+07,
2459811.500000000, A.D. 2022-Aug-20 00:00:00.0000, -4.803122981264804E+07, 4.691007352445346E+08, 1.008065595019825E+08,
2459818.500000000, A.D. 2022-Aug-27 00:00:00.0000, -5.708679423662138E+07, 4.661397365557163E+08, 1.022375853424299E+08,
2459825.500000000, A.D. 2022-Sep-03 00:00:00.0000, -6.611743302190878E+07, 4.629748937214525E+08, 1.036239022933455E+08,
2459832.500000000, A.D. 2022-Sep-10 00:00:00.0000, -7.511890450291632E+07, 4.596055464584620E+08, 1.049644465265718E+08,
2459839.500000000, A.D. 2022-Sep-17 00:00:00.0000, -8.408689160774191E+07, 4.560310991014639E+08, 1.062581499204885E+08,
2459846.500000000, A.D. 2022-Sep-24 00:00:00.0000, -9.301700089595821E+07, 4.522510236827976E+08, 1.075039404586039E+08,
2459853.500000000, A.D. 2022-Oct-01 00:00:00.0000, -1.019047613649457E+08, 4.482648629943874E+08, 1.087007426326272E+08,
2459860.500000000, A.D. 2022-Oct-08 00:00:00.0000, -1.107456226259791E+08, 4.440722341586118E+08, 1.098474778580525E+08,
2459867.500000000, A.D. 2022-Oct-15 00:00:00.0000, -1.195349533912328E+08, 4.396728339120594E+08, 1.109430650886224E+08,
2459874.500000000, A.D. 2022-Oct-22 00:00:00.0000, -1.282680424620529E+08, 4.350664439223018E+08, 1.119864216947656E+08,
2459881.500000000, A.D. 2022-Oct-29 00:00:00.0000, -1.369400997305909E+08, 4.302529335448147E+08, 1.129764641666566E+08,
2459888.500000000, A.D. 2022-Nov-05 00:00:00.0000, -1.455462551090776E+08, 4.252322627632853E+08, 1.139121086761657E+08,
2459895.500000000, A.D. 2022-Nov-12 00:00:00.0000, -1.540815573646553E+08, 4.200044865851160E+08, 1.147922717852158E+08,
2459902.500000000, A.D. 2022-Nov-19 00:00:00.0000, -1.625409735916614E+08, 4.145697599404908E+08, 1.156158712916923E+08,
2459909.500000000, A.D. 2022-Nov-26 00:00:00.0000, -1.709193890731024E+08, 4.089283426887488E+08, 1.163818271594699E+08,
2459916.500000000, A.D. 2022-Dec-03 00:00:00.0000, -1.792116073804889E+08, 4.030806047213198E+08, 1.170890625197780E+08,
2459923.500000000, A.D. 2022-Dec-10 00:00:00.0000, -1.874123506825945E+08, 3.970270311802754E+08, 1.177365047448639E+08,
2459930.500000000, A.D. 2022-Dec-17 00:00:00.0000, -1.955162602553250E+08, 3.907682277671544E+08, 1.183230865933804E+08,
2459937.500000000, A.D. 2022-Dec-24 00:00:00.0000, -2.035178971010247E+08, 3.843049260749629E+08, 1.188477474158515E+08,
2459944.500000000, A.D. 2022-Dec-31 00:00:00.0000, -2.114117423381860E+08, 3.776379890484571E+08, 1.193094343999601E+08,
2459951.500000000, A.D. 2023-Jan-07 00:00:00.0000, -2.191921972587080E+08, 3.707684175317034E+08, 1.197071039268825E+08,
2459958.500000000, A.D. 2023-Jan-14 00:00:00.0000, -2.268535850406936E+08, 3.636973583962474E+08, 1.200397232638922E+08,
2459965.500000000, A.D. 2023-Jan-21 00:00:00.0000, -2.343901547811960E+08, 3.564261110721829E+08, 1.203062723965671E+08,
2459972.500000000, A.D. 2023-Jan-28 00:00:00.0000, -2.417960842009617E+08, 3.489561322760116E+08, 1.205057456499600E+08,
2459979.500000000, A.D. 2023-Feb-04 00:00:00.0000, -2.490654812545293E+08, 3.412890419518278E+08, 1.206371533681495E+08,
2459986.500000000, A.D. 2023-Feb-11 00:00:00.0000, -2.561923864661657E+08, 3.334266302224075E+08, 1.206995238047641E+08,
2459993.500000000, A.D. 2023-Feb-18 00:00:00.0000, -2.631707760792382E+08, 3.253708645141978E+08, 1.206919051659220E+08,
2460000.500000000, A.D. 2023-Feb-25 00:00:00.0000, -2.699945657815547E+08, 3.171238966786627E+08, 1.206133677709214E+08,
2460007.500000000, A.D. 2023-Mar-04 00:00:00.0000, -2.766576149306960E+08, 3.086880701111760E+08, 1.204630063255939E+08,
2460014.500000000, A.D. 2023-Mar-11 00:00:00.0000, -2.831537312771949E+08, 3.000659268483256E+08, 1.202399423083494E+08,
2460021.500000000, A.D. 2023-Mar-18 00:00:00.0000, -2.894766761649117E+08, 2.912602145720457E+08, 1.199433264627298E+08,
2460028.500000000, A.D. 2023-Mar-25 00:00:00.0000, -2.956201700314651E+08, 2.822738934483968E+08, 1.195723413755054E+08,
2460035.500000000, A.D. 2023-Apr-01 00:00:00.0000, -3.015778978100548E+08, 2.731101431661998E+08, 1.191262041343044E+08,
2460042.500000000, A.D. 2023-Apr-08 00:00:00.0000, -3.073435148740335E+08, 2.637723713692252E+08, 1.186041692214974E+08,
2460049.500000000, A.D. 2023-Apr-15 00:00:00.0000, -3.129106558870478E+08, 2.542642223428171E+08, 1.180055317681962E+08,
2460056.500000000, A.D. 2023-Apr-22 00:00:00.0000, -3.182729447708649E+08, 2.445895828671448E+08, 1.173296307508022E+08,
2460063.500000000, A.D. 2023-Apr-29 00:00:00.0000, -3.234240030728937E+08, 2.347525874456826E+08, 1.165758520574254E+08,
2460070.500000000, A.D. 2023-May-06 00:00:00.0000, -3.283574585132743E+08, 2.247576246405677E+08, 1.157436317249175E+08,
2460077.500000000, A.D. 2023-May-13 00:00:00.0000, -3.330669547078488E+08, 2.146093435705594E+08, 1.148324593571783E+08,
2460084.500000000, A.D. 2023-May-20 00:00:00.0000, -3.375461618494428E+08, 2.043126600261984E+08, 1.138418816562433E+08,
2460091.500000000, A.D. 2023-May-27 00:00:00.0000, -3.417887881682834E+08, 1.938727621152037E+08, 1.127715060384813E+08,
2460098.500000000, A.D. 2023-Jun-03 00:00:00.0000, -3.457885921248267E+08, 1.832951154045452E+08, 1.116210043242576E+08,
2460105.500000000, A.D. 2023-Jun-10 00:00:00.0000, -3.495393953168888E+08, 1.725854674833044E+08, 1.103901164873292E+08,
2460112.500000000, A.D. 2023-Jun-17 00:00:00.0000, -3.530350960118244E+08, 1.617498518205755E+08, 1.090786544380372E+08,
2460119.500000000, A.D. 2023-Jun-24 00:00:00.0000, -3.562696829774680E+08, 1.507945909045396E+08, 1.076865058002507E+08,
2460126.500000000, A.D. 2023-Jul-01 00:00:00.0000, -3.592372493462421E+08, 1.397262994176694E+08, 1.062136377091388E+08,
2460133.500000000, A.D. 2023-Jul-08 00:00:00.0000, -3.619320081685750E+08, 1.285518881939720E+08, 1.046601008315621E+08,
2460140.500000000, A.D. 2023-Jul-15 00:00:00.0000, -3.643483109097589E+08, 1.172785660518882E+08, 1.030260334753014E+08,
2460147.500000000, A.D. 2023-Jul-22 00:00:00.0000, -3.664806653362392E+08, 1.059138383928588E+08, 1.013116653576927E+08,
$$EOE